{
  "type": "FeatureCollection",
  "features": [
    {
      "type": "Feature",
      "properties": {
        "norad_id": 43208,
        "name": "BEIDOU-3 M3 (C21)",
        "group": "beidou",
        "lat": 55.851352740835765,
        "lon": 146.8319399309558,
        "alt_km": 21531.745740783324,
        "timestamp": "2025-12-07T03:52:32.761900+00:00",
        "meta_object_name": "BEIDOU-3 M3 (C21)",
        "meta_object_id": "2018-018B",
        "meta_epoch": "2025-12-03T06:41:57.693408",
        "meta_mean_motion": 1.86230862,
        "meta_eccentricity": 0.0006282,
        "meta_inclination": 56.4772,
        "meta_ra_of_asc_node": 69.6218,
        "meta_arg_of_pericenter": 317.5873,
        "meta_mean_anomaly": 42.3668,
        "meta_ephemeris_type": 0,
        "meta_classification_type": "U",
        "meta_norad_cat_id": 43208,
        "meta_element_set_no": 999,
        "meta_rev_at_epoch": 5309,
        "meta_bstar": 0,
        "meta_mean_motion_dot": -4.9e-07,
        "meta_mean_motion_ddot": 0,
        "tle_line1": "1 43208U 18018B   25337.27913997 -.00000049  00000+0  00000+0 0  9994",
        "tle_line2": "2 43208  56.4772  69.6218 0006282 317.5873  42.3668  1.86230862 53096"
      },
      "geometry": {
        "type": "Point",
        "coordinates": [
          146.8319399309558,
          55.851352740835765
        ]
      }
    },
    {
      "type": "Feature",
      "properties": {
        "norad_id": 43245,
        "name": "BEIDOU-3 M9 (C29)",
        "group": "beidou",
        "lat": -45.85861541019914,
        "lon": -100.96199984911277,
        "alt_km": 21529.301348062552,
        "timestamp": "2025-12-07T03:52:32.761911+00:00",
        "meta_object_name": "BEIDOU-3 M9 (C29)",
        "meta_object_id": "2018-029A",
        "meta_epoch": "2025-12-06T04:19:14.773440",
        "meta_mean_motion": 1.86227852,
        "meta_eccentricity": 0.00016531,
        "meta_inclination": 54.3717,
        "meta_ra_of_asc_node": 306.6963,
        "meta_arg_of_pericenter": 276.0283,
        "meta_mean_anomaly": 83.9359,
        "meta_ephemeris_type": 0,
        "meta_classification_type": "U",
        "meta_norad_cat_id": 43245,
        "meta_element_set_no": 999,
        "meta_rev_at_epoch": 5230,
        "meta_bstar": 0,
        "meta_mean_motion_dot": -6.9e-07,
        "meta_mean_motion_ddot": 0,
        "tle_line1": "1 43245U 18029A   25340.18003210 -.00000069  00000+0  00000+0 0  9991",
        "tle_line2": "2 43245  54.3717 306.6963 0001653 276.0283  83.9359  1.86227852 52301"
      },
      "geometry": {
        "type": "Point",
        "coordinates": [
          -100.96199984911277,
          -45.85861541019914
        ]
      }
    },
    {
      "type": "Feature",
      "properties": {
        "norad_id": 43246,
        "name": "BEIDOU-3 M10 (C30)",
        "group": "beidou",
        "lat": -15.037519411848242,
        "lon": -64.434654029839,
        "alt_km": 21519.769380288923,
        "timestamp": "2025-12-07T03:52:32.761923+00:00",
        "meta_object_name": "BEIDOU-3 M10 (C30)",
        "meta_object_id": "2018-029B",
        "meta_epoch": "2025-12-05T00:59:36.820032",
        "meta_mean_motion": 1.86228856,
        "meta_eccentricity": 0.00040279,
        "meta_inclination": 54.3703,
        "meta_ra_of_asc_node": 306.7635,
        "meta_arg_of_pericenter": 0.0249,
        "meta_mean_anomaly": 359.9572,
        "meta_ephemeris_type": 0,
        "meta_classification_type": "U",
        "meta_norad_cat_id": 43246,
        "meta_element_set_no": 999,
        "meta_rev_at_epoch": 5226,
        "meta_bstar": 0,
        "meta_mean_motion_dot": -6.9e-07,
        "meta_mean_motion_ddot": 0,
        "tle_line1": "1 43246U 18029B   25339.04139838 -.00000069  00000+0  00000+0 0  9991",
        "tle_line2": "2 43246  54.3703 306.7635 0004027   0.0249 359.9572  1.86228856 52262"
      },
      "geometry": {
        "type": "Point",
        "coordinates": [
          -64.434654029839,
          -15.037519411848242
        ]
      }
    },
    {
      "type": "Feature",
      "properties": {
        "norad_id": 43539,
        "name": "BEIDOU-2 IGSO-7 (C16)",
        "group": "beidou",
        "lat": 53.971065310592685,
        "lon": -121.80137558456971,
        "alt_km": 36136.7446489957,
        "timestamp": "2025-12-07T03:52:32.761934+00:00",
        "meta_object_name": "BEIDOU-2 IGSO-7 (C16)",
        "meta_object_id": "2018-057A",
        "meta_epoch": "2025-12-06T10:45:43.762752",
        "meta_mean_motion": 1.00258736,
        "meta_eccentricity": 0.00924876,
        "meta_inclination": 55.1738,
        "meta_ra_of_asc_node": 164.7265,
        "meta_arg_of_pericenter": 235.2008,
        "meta_mean_anomaly": 308.2533,
        "meta_ephemeris_type": 0,
        "meta_classification_type": "U",
        "meta_norad_cat_id": 43539,
        "meta_element_set_no": 999,
        "meta_rev_at_epoch": 2719,
        "meta_bstar": 0,
        "meta_mean_motion_dot": -5.8e-07,
        "meta_mean_motion_ddot": 0,
        "tle_line1": "1 43539U 18057A   25340.44842318 -.00000058  00000+0  00000+0 0  9995",
        "tle_line2": "2 43539  55.1738 164.7265 0092487 235.2008 308.2533  1.00258736 27191"
      },
      "geometry": {
        "type": "Point",
        "coordinates": [
          -121.80137558456971,
          53.971065310592685
        ]
      }
    },
    {
      "type": "Feature",
      "properties": {
        "norad_id": 43581,
        "name": "BEIDOU-3 M5 (C23)",
        "group": "beidou",
        "lat": -8.702180325789088,
        "lon": 15.21134357185017,
        "alt_km": 21535.282669098367,
        "timestamp": "2025-12-07T03:52:32.761946+00:00",
        "meta_object_name": "BEIDOU-3 M5 (C23)",
        "meta_object_id": "2018-062A",
        "meta_epoch": "2025-12-05T19:16:28.653888",
        "meta_mean_motion": 1.862286,
        "meta_eccentricity": 0.00021216,
        "meta_inclination": 54.0891,
        "meta_ra_of_asc_node": 188.8794,
        "meta_arg_of_pericenter": 352.6439,
        "meta_mean_anomaly": 7.436,
        "meta_ephemeris_type": 0,
        "meta_classification_type": "U",
        "meta_norad_cat_id": 43581,
        "meta_element_set_no": 999,
        "meta_rev_at_epoch": 5003,
        "meta_bstar": 0,
        "meta_mean_motion_dot": 8.2e-07,
        "meta_mean_motion_ddot": 0,
        "tle_line1": "1 43581U 18062A   25339.80310942  .00000082  00000+0  00000+0 0  9995",
        "tle_line2": "2 43581  54.0891 188.8794 0002121 352.6439   7.4360  1.86228600 50034"
      },
      "geometry": {
        "type": "Point",
        "coordinates": [
          15.21134357185017,
          -8.702180325789088
        ]
      }
    },
    {
      "type": "Feature",
      "properties": {
        "norad_id": 43582,
        "name": "BEIDOU-3 M6 (C24)",
        "group": "beidou",
        "lat": -52.22249826110928,
        "lon": 119.55974908319506,
        "alt_km": 21545.761072727462,
        "timestamp": "2025-12-07T03:52:32.761958+00:00",
        "meta_object_name": "BEIDOU-3 M6 (C24)",
        "meta_object_id": "2018-062B",
        "meta_epoch": "2025-12-04T14:12:56.874816",
        "meta_mean_motion": 1.862296,
        "meta_eccentricity": 0.00077069,
        "meta_inclination": 54.0887,
        "meta_ra_of_asc_node": 188.9098,
        "meta_arg_of_pericenter": 46.0149,
        "meta_mean_anomaly": 314.1395,
        "meta_ephemeris_type": 0,
        "meta_classification_type": "U",
        "meta_norad_cat_id": 43582,
        "meta_element_set_no": 999,
        "meta_rev_at_epoch": 5001,
        "meta_bstar": 0,
        "meta_mean_motion_dot": 1.02e-06,
        "meta_mean_motion_ddot": 0,
        "tle_line1": "1 43582U 18062B   25338.59232494  .00000102  00000+0  00000+0 0  9999",
        "tle_line2": "2 43582  54.0887 188.9098 0007706  46.0149 314.1395  1.86229600 50019"
      },
      "geometry": {
        "type": "Point",
        "coordinates": [
          119.55974908319506,
          -52.22249826110928
        ]
      }
    },
    {
      "type": "Feature",
      "properties": {
        "norad_id": 43602,
        "name": "BEIDOU-3 M12 (C26)",
        "group": "beidou",
        "lat": -28.29947348554064,
        "lon": 164.67059653337938,
        "alt_km": 21526.025060814933,
        "timestamp": "2025-12-07T03:52:32.761969+00:00",
        "meta_object_name": "BEIDOU-3 M12 (C26)",
        "meta_object_id": "2018-067A",
        "meta_epoch": "2025-12-05T01:36:30.437280",
        "meta_mean_motion": 1.86227634,
        "meta_eccentricity": 0.0009145,
        "meta_inclination": 54.1831,
        "meta_ra_of_asc_node": 187.6237,
        "meta_arg_of_pericenter": 40.6372,
        "meta_mean_anomaly": 319.5174,
        "meta_ephemeris_type": 0,
        "meta_classification_type": "U",
        "meta_norad_cat_id": 43602,
        "meta_element_set_no": 999,
        "meta_rev_at_epoch": 4950,
        "meta_bstar": 0,
        "meta_mean_motion_dot": 9.5e-07,
        "meta_mean_motion_ddot": 0,
        "tle_line1": "1 43602U 18067A   25339.06701895  .00000095  00000+0  00000+0 0  9997",
        "tle_line2": "2 43602  54.1831 187.6237 0009145  40.6372 319.5174  1.86227634 49501"
      },
      "geometry": {
        "type": "Point",
        "coordinates": [
          164.67059653337938,
          -28.29947348554064
        ]
      }
    }
  ]
}